BEIDOU-2 IGSO-1 (C06)   
1 36828U 10036A   23153.49465859 -.00000021  00000+0  00000+0 0  9993
2 36828  54.2313 173.0252 0037995 191.8763 170.7119  1.00296371 47078
BEIDOU-2 G4 (C04)       
1 37210U 10057A   23153.48388844 -.00000091  00000+0  00000+0 0  9996
2 37210   0.9832  55.1271 0001684 150.8980  18.9012  1.00272222 46153
BEIDOU-2 IGSO-2 (C07)   
1 37256U 10068A   23153.17489200 -.00000219  00000+0  00000+0 0  9994
2 37256  49.5830 285.4459 0026937 201.3337 293.4847  1.00256451 45658
BEIDOU-2 IGSO-3 (C08)   
1 37384U 11013A   23153.25927271 -.00000201  00000+0  00000+0 0  9992
2 37384  60.7988  50.8147 0022683 179.7008 219.3786  1.00262735 44520
BEIDOU-2 IGSO-4 (C09)   
1 37763U 11038A   23153.44717762  .00000099  00000+0  00000+0 0  9997
2 37763  54.5041 175.5510 0111123 228.3968  99.9115  1.00292836 43505
BEIDOU-2 IGSO-5 (C10)   
1 37948U 11073A   23153.20379128 -.00000160  00000+0  00000+0 0  9995
2 37948  49.7052 285.1048 0088762 218.5680 273.1015  1.00254438 41998
BEIDOU-2 G5 (C05)       
1 38091U 12008A   23153.10533397  .00000077  00000+0  00000+0 0  9999
2 38091   1.4954  66.3022 0003777 284.4834 356.1701  1.00274525 41220
BEIDOU-2 M3 (C11)       
1 38250U 12018A   23153.23102964 -.00000062  00000+0  00000+0 0  9998
2 38250  56.5606 341.9895 0020314 258.5150 101.2798  1.86231188 75595
BEIDOU-2 M4 (C12)       
1 38251U 12018B   23153.16319155 -.00000062  00000+0  00000+0 0  9993
2 38251  56.4726 341.2918 0011232 261.4285  98.4666  1.86234210 75251
BEIDOU-2 M6 (C14)       
1 38775U 12050B   23152.87292722  .00000006  00000+0  00000+0 0  9994
2 38775  55.6264  99.9376 0014747 328.8208  31.0534  1.86231200 72612
BEIDOU-2 G6 (C02)       
1 38953U 12059A   23153.59507389 -.00000156  00000+0  00000+0 0  9996
2 38953   1.7973  82.3791 0010998 316.5204 150.0788  1.00274973 38772
BEIDOU-3S IGSO-1S (C31) 
1 40549U 15019A   23153.23140352 -.00000193  00000+0  00000+0 0  9994
2 40549  51.2734 308.6719 0038297 191.4290 290.4155  1.00277444 29933
BEIDOU-3S M2S (C57)     
1 40748U 15037A   23152.76233066 -.00000063  00000+0  00000+0 0  9993
2 40748  55.7160 339.9578 0004770  47.3678 312.6938  1.86233267 53420
BEIDOU-3S M1S (C58)     
1 40749U 15037B   23153.09952425 -.00000063  00000+0  00000+0 0  9998
2 40749  55.7190 339.9375 0004101   1.7986 358.2233  1.86232956 53432
BEIDOU-3S IGSO-2S (C56) 
1 40938U 15053A   23153.17697765 -.00000149  00000+0  00000+0 0  9993
2 40938  50.9562 271.8382 0047435 194.0410 302.7993  1.00258749 28218
BEIDOU-2 IGSO-6 (C13)   
1 41434U 16021A   23153.18013389 -.00000165  00000+0  00000+0 0  9994
2 41434  58.6112  49.2312 0045737 224.1463 135.0509  1.00258221 26338
BEIDOU-2 G7 (C03)       
1 41586U 16037A   23153.47409184 -.00000334  00000+0  00000+0 0  9991
2 41586   1.6568  66.7126 0009146 353.9824 111.2030  1.00269022 25652
BEIDOU-3 M1 (C19)       
1 43001U 17069A   23152.63939233  .00000007  00000+0  00000+0 0  9997
2 43001  55.7781  99.9926 0011778 299.5714  60.2736  1.86231557 37909
BEIDOU-3 M2 (C20)       
1 43002U 17069B   23153.11285102  .00000005  00000+0  00000+0 0  9999
2 43002  55.7779 100.0121 0009826 319.2891  40.5985  1.86231132 37901
BEIDOU-3 M7 (C27)       
1 43107U 18003A   23151.25349488 -.00000066  00000+0  00000+0 0  9993
2 43107  55.1720 340.7726 0005502  65.9302 294.1522  1.86232510 36634
BEIDOU-3 M8 (C28)       
1 43108U 18003B   23152.80166312 -.00000065  00000+0  00000+0 0  9998
2 43108  55.1642 340.7071 0001949 255.0167 104.9837  1.86230940 36668
BEIDOU-3 M4 (C22)       
1 43207U 18018A   23153.24432867  .00000005  00000+0  00000+0 0  9997
2 43207  55.7375 100.0746 0007091 338.8090  21.1223  1.86231456 36057
BEIDOU-3 M3 (C21)       
1 43208U 18018B   23153.31091667  .00000005  00000+0  00000+0 0  9995
2 43208  55.7369 100.0768 0009649 309.6325  50.2430  1.86231372 36053
BEIDOU-3 M9 (C29)       
1 43245U 18029A   23153.53438938 -.00000064  00000+0  00000+0 0  9994
2 43245  55.0694 338.4369 0001049  77.3865 282.6418  1.86232601 35216
BEIDOU-3 M10 (C30)      
1 43246U 18029B   23152.92763130 -.00000064  00000+0  00000+0 0  9992
2 43246  55.0667 338.4862 0004297  18.8582 341.1760  1.86232882 35187
BEIDOU-2 IGSO-7 (C16)   
1 43539U 18057A   23153.49622631 -.00000023  00000+0  00000+0 0  9996
2 43539  55.1034 172.6545 0061373 231.4514 136.6482  1.00259577 18010
BEIDOU-3 M5 (C23)       
1 43581U 18062A   23152.07450050  .00000059  00000+0  00000+0 0  9994
2 43581  54.1908 220.1653 0004617 269.6543  90.3740  1.86231965 32922
BEIDOU-3 M6 (C24)       
1 43582U 18062B   23153.01316401  .00000068  00000+0  00000+0 0  9991
2 43582  54.1903 220.1229 0004104 359.1029   0.9832  1.86229502 32947
BEIDOU-3 M12 (C26)      
1 43602U 18067A   23153.48740019  .00000074  00000+0  00000+0 0  9993
2 43602  54.2768 218.7528 0006532  12.5241 347.5830  1.86231717 32431
BEIDOU-3 M11 (C25)      
1 43603U 18067B   23153.08423648  .00000071  00000+0  00000+0 0  9993
2 43603  54.2740 218.7324 0003643 356.8204   3.2660  1.86231635 32457
BEIDOU-3 M13 (C32)      
1 43622U 18072A   23153.04216056  .00000005  00000+0  00000+0 0  9996
2 43622  55.7062  99.6238 0008291 297.7943  62.0831  1.86231579 31963
BEIDOU-3 M14 (C33)      
1 43623U 18072B   23152.37067199  .00000007  00000+0  00000+0 0  9996
2 43623  55.7076  99.6389 0006288 319.2511  40.6651  1.86231612 31950
BEIDOU-3 M16 (C35)      
1 43647U 18078A   23153.06783944 -.00000064  00000+0  00000+0 0  9992
2 43647  54.9654 338.5826 0007713  18.7670 341.2795  1.86227293 31466
BEIDOU-3 M15 (C34)      
1 43648U 18078B   23153.20098043 -.00000064  00000+0  00000+0 0  9998
2 43648  54.9611 338.5824 0004909  33.9268 326.1224  1.86232231 31494
BEIDOU-3 G1 (C59)       
1 43683U 18085A   23153.58224373 -.00000258  00000+0  00000+0 0  9998
2 43683   1.3183 131.3914 0004710 321.3345 147.6506  1.00266702 16928
BEIDOU-3 M17 (C36)      
1 43706U 18093A   23153.34982949  .00000071  00000+0  00000+0 0  9999
2 43706  54.2728 220.0322 0009829 274.9875  84.9891  1.86232010 30837
BEIDOU-3 M18 (C37)      
1 43707U 18093B   23153.21467228  .00000070  00000+0  00000+0 0  9993
2 43707  54.2736 220.0282 0007805 300.3982  59.6128  1.86229788 30848
BEIDOU-3 IGSO-1 (C38)   
1 44204U 19023A   23153.48862441 -.00000235  00000+0  00000+0 0  9999
2 44204  57.0774  49.2367 0018630 202.6110 292.2779  1.00257091 15208
BEIDOU-2 G8 (C01)       
1 44231U 19027A   23153.61384991 -.00000227  00000+0  00000+0 0  9998
2 44231   1.7242  81.2183 0004449 121.0265  54.1052  1.00270163 14948
BEIDOU-3 IGSO-2 (C39)   
1 44337U 19035A   23153.35103072 -.00000028  00000+0  00000+0 0  9993
2 44337  55.1457 168.6190 0030747 202.6361 122.1104  1.00250217 14523
BEIDOU-3 M24 (C46)      
1 44542U 19061A   23152.75014672  .00000066  00000+0  00000+0 0  9991
2 44542  54.5002 220.2633 0007426 337.9444  22.1089  1.86231233 25095
BEIDOU-3 M23 (C45)      
1 44543U 19061B   23153.41682453  .00000071  00000+0  00000+0 0  9990
2 44543  54.4983 220.2104 0005009 319.2992  39.4982  1.86231638 25106
BEIDOU-3 IGSO-3 (C40)   
1 44709U 19073A   23152.79259417 -.00000209  00000+0  00000+0 0  9991
2 44709  56.6936 292.7406 0032089 178.4936 181.4424  1.00256524 13318
BEIDOU-3 M22 (C44)      
1 44793U 19078A   23152.05817703 -.00000065  00000+0  00000+0 0  9996
2 44793  54.8143 338.5962 0006781  26.8770 333.1785  1.86232219 23933
BEIDOU-3 M21 (C43)      
1 44794U 19078B   23152.72592647 -.00000065  00000+0  00000+0 0  9998
2 44794  54.7880 338.5574 0004611  26.7104 333.3322  1.86232668 23959
BEIDOU-3 M19 (C41)      
1 44864U 19090A   23153.24562906  .00000004  00000+0  00000+0 0  9995
2 44864  55.6407  99.8095 0018666 278.6901 263.7869  1.86231775 23540
BEIDOU-3 M20 (C42)      
1 44865U 19090B   23152.60880865  .00000007  00000+0  00000+0 0  9995
2 44865  55.6423  99.8634 0016874 291.4879 273.8366  1.86231754 23501
BEIDOU-3 G2 (C60)       
1 45344U 20017A   23153.48938191 -.00000122  00000+0  00000+0 0  9991
2 45344   2.0081  11.1913 0003186  91.5326  44.1834  1.00270616 12126
BEIDOU-3 G3 (C61)       
1 45807U 20040A   23153.47400465 -.00000334  00000+0  00000+0 0  9993
2 45807   0.7315 327.6156 0005996 319.4583 244.8480  1.00270048 10939
BEIDOU-3 G4             
1 56564U 23066A   23153.58069816 -.00000090  00000+0  00000+0 0  9998
2 56564   3.0757 289.3703 0006803 183.0651 147.4136  1.00272411   254
